{
  "type": "FeatureCollection",
  "metadata": {
    "generator": "Project Helios",
    "generated_at": "2026-07-27T23:21:22.876389+00:00",
    "attributions": [
      "Parcel data courtesy of Maricopa County Assessor / Maricopa County GIS.",
      "Power infrastructure data (c) OpenStreetMap contributors, ODbL."
    ],
    "disclaimer": "Helios infers development activity from public records. Confidence scores are model output, not fact. Helios does not assert the identity of any facility operator unless a direct filing establishes it. Estimates are labelled as such and must not be cited as measurements."
  },
  "features": [
    {
      "type": "Feature",
      "geometry": {
        "type": "MultiPolygon",
        "coordinates": [
          [
            [
              [
                -111.88498425787434,
                33.27627384605597
              ],
              [
                -111.88503230786056,
                33.276232522524445
              ],
              [
                -111.8851211072247,
                33.276271496105934
              ],
              [
                -111.88643869050645,
                33.276248578644775
              ],
              [
                -111.88643853419958,
                33.27673552402059
              ],
              [
                -111.88659098279489,
                33.2767355593185
              ],
              [
                -111.8865909738117,
                33.27676343036987
              ],
              [
                -111.88658705751031,
                33.27683771183759
              ],
              [
                -111.8865767684404,
                33.27691138143039
              ],
              [
                -111.88656018281887,
                33.27698389343644
              ],
              [
                -111.88653742350469,
                33.277054710718794
              ],
              [
                -111.88650865908879,
                33.277123308694286
              ],
              [
                -111.8864741026453,
                33.27718917921938
              ],
              [
                -111.88643401015308,
                33.27725183435429
              ],
              [
                -111.88638867859963,
                33.27731080997743
              ],
              [
                -111.8861723517028,
                33.277575429279786
              ],
              [
                -111.88549312832997,
                33.27757409773639
              ],
              [
                -111.88495607952049,
                33.277573040312184
              ],
              [
                -111.88495428019499,
                33.27705743558659
              ],
              [
                -111.88498699953259,
                33.27705735522787
              ],
              [
                -111.8849852379363,
                33.27655369769222
              ],
              [
                -111.88498425787434,
                33.27627384605597
              ]
            ]
          ]
        ]
      },
      "properties": {
        "project_code": "AZ-CHANDLER-006",
        "jurisdiction": "Chandler",
        "site_kind": "enterprise_data_center",
        "site_kind_assertion": "reported",
        "stage": 7,
        "stage_label": "Operational",
        "confidence": 61.3,
        "total_acres": 4.9443,
        "evidence_count": 7
      }
    },
    {
      "type": "Feature",
      "geometry": {
        "type": "MultiPolygon",
        "coordinates": [
          [
            [
              [
                -111.6199590112642,
                33.34451864436667
              ],
              [
                -111.61907352392235,
                33.344513437097454
              ],
              [
                -111.6189578882874,
                33.34451275570233
              ],
              [
                -111.61895944416946,
                33.34431672531356
              ],
              [
                -111.61894388984032,
                33.34431663150893
              ],
              [
                -111.61895084819051,
                33.34344021218633
              ],
              [
                -111.61905562229538,
                33.343440844810914
              ],
              [
                -111.6190561235553,
                33.3433776236014
              ],
              [
                -111.61922147016143,
                33.343378623944474
              ],
              [
                -111.61922092039248,
                33.343441844402854
              ],
              [
                -111.62031742468953,
                33.34344847082639
              ],
              [
                -111.62031046903428,
                33.34432642395857
              ],
              [
                -111.62000474000375,
                33.34432462891389
              ],
              [
                -111.6200049897354,
                33.344513783048036
              ],
              [
                -111.61996053211199,
                33.34451382507238
              ],
              [
                -111.61996049528106,
                33.344518653371935
              ],
              [
                -111.6199590112642,
                33.34451864436667
              ]
            ]
          ]
        ]
      },
      "properties": {
        "project_code": "AZ-MESA-002",
        "jurisdiction": "Mesa",
        "site_kind": "enterprise_data_center",
        "site_kind_assertion": "reported",
        "stage": 7,
        "stage_label": "Operational",
        "confidence": 40.23,
        "total_acres": 3.6364,
        "evidence_count": 7
      }
    },
    {
      "type": "Feature",
      "geometry": {
        "type": "MultiPolygon",
        "coordinates": [
          [
            [
              [
                -111.88893445919906,
                33.273723006021065
              ],
              [
                -111.88895066929837,
                33.27484297988394
              ],
              [
                -111.8889179571473,
                33.27484356418916
              ],
              [
                -111.88893048864551,
                33.275709321499654
              ],
              [
                -111.88886585036923,
                33.27576543901126
              ],
              [
                -111.88824429254943,
                33.27577632664997
              ],
              [
                -111.88824497437072,
                33.27580380597163
              ],
              [
                -111.88577329849404,
                33.275847071860326
              ],
              [
                -111.88577282238693,
                33.27582783732189
              ],
              [
                -111.8850290775188,
                33.27584084735358
              ],
              [
                -111.88496286808909,
                33.275787020522415
              ],
              [
                -111.88493471578641,
                33.27379279155882
              ],
              [
                -111.88646064712862,
                33.27376618356659
              ],
              [
                -111.88893445919906,
                33.273723006021065
              ]
            ]
          ]
        ]
      },
      "properties": {
        "project_code": "AZ-CHANDLER-002",
        "jurisdiction": "Chandler",
        "site_kind": "enterprise_data_center",
        "site_kind_assertion": "reported",
        "stage": 7,
        "stage_label": "Operational",
        "confidence": 38.86,
        "total_acres": 20.9489,
        "evidence_count": 4
      }
    },
    {
      "type": "Feature",
      "geometry": {
        "type": "MultiPolygon",
        "coordinates": [
          [
            [
              [
                -111.88448797371414,
                33.26533209065876
              ],
              [
                -111.88451525644764,
                33.26535378366062
              ],
              [
                -111.88074803296314,
                33.26541349590932
              ],
              [
                -111.88073719478923,
                33.26539165945911
              ],
              [
                -111.88448797371414,
                33.26533209065876
              ]
            ]
          ],
          [
            [
              [
                -111.88067722236254,
                33.26541459103656
              ],
              [
                -111.88051486265473,
                33.26541711478662
              ],
              [
                -111.8804628286402,
                33.265403891387116
              ],
              [
                -111.88046344668113,
                33.26540332204103
              ],
              [
                -111.88047088832492,
                33.265396478621106
              ],
              [
                -111.88066665997144,
                33.265392726795355
              ],
              [
                -111.88067722236254,
                33.26541459103656
              ]
            ]
          ],
          [
            [
              [
                -111.88050022101392,
                33.26549983440981
              ],
              [
                -111.88455604984301,
                33.265436709900634
              ],
              [
                -111.88455921820102,
                33.26566327245352
              ],
              [
                -111.88455696072347,
                33.26579557304704
              ],
              [
                -111.88454847424192,
                33.26592762047369
              ],
              [
                -111.88453377759424,
                33.266059121621204
              ],
              [
                -111.8845129034033,
                33.26618978458996
              ],
              [
                -111.8844858980046,
                33.266319319340866
              ],
              [
                -111.88445282134334,
                33.26644743833919
              ],
              [
                -111.88441374684146,
                33.26657385719282
              ],
              [
                -111.88436876123454,
                33.26669829528354
              ],
              [
                -111.88431796437939,
                33.26682047638993
              ],
              [
                -111.88426146903232,
                33.266940129300515
              ],
              [
                -111.88419940059886,
                33.26705698841577
              ],
              [
                -111.88413189685538,
                33.26717079433771
              ],
              [
                -111.88405910764332,
                33.26728129444567
              ],
              [
                -111.8839811945365,
                33.267388243457056
              ],
              [
                -111.8839158627504,
                33.26747936877699
              ],
              [
                -111.88385548370735,
                33.26757384860219
              ],
              [
                -111.88380022925703,
                33.267671414026026
              ],
              [
                -111.88375025666356,
                33.26777178735969
              ],
              [
                -111.88370570815796,
                33.26787468292256
              ],
              [
                -111.88366671053333,
                33.26797980785529
              ],
              [
                -111.88363337478394,
                33.26808686295336
              ],
              [
                -111.88360579578935,
                33.26819554351862
              ],
              [
                -111.88358405204436,
                33.268305540226585
              ],
              [
                -111.88356996394445,
                33.2684079953377
              ],
              [
                -111.88356131546622,
                33.268511052254865
              ],
              [
                -111.88355813082879,
                33.26861442237838
              ],
              [
                -111.8835604189504,
                33.268717816231444
              ],
              [
                -111.8835681734234,
                33.26882094427079
              ],
              [
                -111.88358361601142,
                33.268937250414794
              ],
              [
                -111.88360574608966,
                33.269052471299595
              ],
              [
                -111.88363448986708,
                33.26916622272999
              ],
              [
                -111.88366975149977,
                33.26927812541056
              ],
              [
                -111.8837114134105,
                33.26938780621039
              ],
              [
                -111.88375933668082,
                33.26949489940727
              ],
              [
                -111.88381336151429,
                33.26959904790715
              ],
              [
                -111.8838733077692,
                33.26969990443484
              ],
              [
                -111.88392628093024,
                33.26979092500091
              ],
              [
                -111.88397329531311,
                33.269885161655374
              ],
              [
                -111.88401415655828,
                33.26998222481977
              ],
              [
                -111.88404869574359,
                33.270081713230745
              ],
              [
                -111.88404002879773,
                33.27009404664817
              ],
              [
                -111.88408453852342,
                33.27022606915949
              ],
              [
                -111.88409019732184,
                33.270247432028015
              ],
              [
                -111.88409289613158,
                33.270269366261005
              ],
              [
                -111.88409258473344,
                33.27029146370842
              ],
              [
                -111.88409129205775,
                33.27030241962642
              ],
              [
                -111.88408533234193,
                33.27032777909568
              ],
              [
                -111.88407570194522,
                33.27035198397852
              ],
              [
                -111.88406261099522,
                33.270374506143646
              ],
              [
                -111.88404634512602,
                33.27039485417533
              ],
              [
                -111.88402725924597,
                33.27041258409571
              ],
              [
                -111.88398944176565,
                33.27044037548829
              ],
              [
                -111.88394842205118,
                33.27046317694318
              ],
              [
                -111.88390485480534,
                33.27048062453354
              ],
              [
                -111.88392332057434,
                33.27067126906499
              ],
              [
                -111.88396406092062,
                33.270680031657406
              ],
              [
                -111.88400339543418,
                33.270693792285385
              ],
              [
                -111.88404071352262,
                33.27071233734173
              ],
              [
                -111.88407543589464,
                33.27073537895022
              ],
              [
                -111.88411008038241,
                33.27076510812325
              ],
              [
                -111.88414137942303,
                33.270798341153785
              ],
              [
                -111.88414847072389,
                33.27080699047313
              ],
              [
                -111.88417668496554,
                33.270847342953815
              ],
              [
                -111.88419943125163,
                33.27089101185119
              ],
              [
                -111.88423416281546,
                33.270905356516806
              ],
              [
                -111.88426527941475,
                33.271009504022615
              ],
              [
                -111.88430258059013,
                33.271111599899285
              ],
              [
                -111.88434593229618,
                33.27121127725528
              ],
              [
                -111.88439517874431,
                33.27130817789028
              ],
              [
                -111.88445014296259,
                33.27140195358238
              ],
              [
                -111.88450080208584,
                33.271487635823576
              ],
              [
                -111.88454607313575,
                33.27157628301905
              ],
              [
                -111.88458578329336,
                33.27166755676451
              ],
              [
                -111.88461978096797,
                33.271761108628986
              ],
              [
                -111.8846479363759,
                33.271856581484975
              ],
              [
                -111.88467014203593,
                33.2719536108717
              ],
              [
                -111.88468631317954,
                33.272051826386466
              ],
              [
                -111.88469638807456,
                33.2721508530986
              ],
              [
                -111.88470032826078,
                33.27225031298076
              ],
              [
                -111.8847027492205,
                33.27242223433509
              ],
              [
                -111.88468635227161,
                33.27242251898525
              ],
              [
                -111.88047944747298,
                33.27249558091419
              ],
              [
                -111.88043440684294,
                33.26887471080291
              ],
              [
                -111.8804344050463,
                33.268874502752
              ],
              [
                -111.88042671546746,
                33.2683818818574
              ],
              [
                -111.88040215912088,
                33.26680859505538
              ],
              [
                -111.88039810053242,
                33.26654861875868
              ],
              [
                -111.88038906797223,
                33.26596987513127
              ],
              [
                -111.88040520171474,
                33.26573149610781
              ],
              [
                -111.8804014494518,
                33.2654738398054
              ],
              [
                -111.88050022101392,
                33.26549983440981
              ]
            ]
          ]
        ]
      },
      "properties": {
        "project_code": "AZ-CHANDLER-001",
        "jurisdiction": "Chandler",
        "site_kind": "hyperscale_campus",
        "site_kind_assertion": "reported",
        "stage": 7,
        "stage_label": "Operational",
        "confidence": 38.86,
        "total_acres": 66.083,
        "evidence_count": 4
      }
    },
    {
      "type": "Feature",
      "geometry": {
        "type": "MultiPolygon",
        "coordinates": [
          [
            [
              [
                -111.81202099203364,
                33.374894026174566
              ],
              [
                -111.8120309826111,
                33.37487248287401
              ],
              [
                -111.81203727619776,
                33.37484958492204
              ],
              [
                -111.81203969977716,
                33.37482596180413
              ],
              [
                -111.81203818672294,
                33.3748022629412
              ],
              [
                -111.81203277863032,
                33.37477913983649
              ],
              [
                -111.81202362417267,
                33.374757228165116
              ],
              [
                -111.81201097501435,
                33.3747371302988
              ],
              [
                -111.81199517889216,
                33.3747193987461
              ],
              [
                -111.81197667005584,
                33.37470452096349
              ],
              [
                -111.81196759165088,
                33.37469696136786
              ],
              [
                -111.81195976843387,
                33.37468810912531
              ],
              [
                -111.81195338238139,
                33.374678170148684
              ],
              [
                -111.81194858204003,
                33.37466737562945
              ],
              [
                -111.81194547907096,
                33.37465597665995
              ],
              [
                -111.81194414565266,
                33.37464423839269
              ],
              [
                -111.81194255293967,
                33.37453446666319
              ],
              [
                -111.81194386027246,
                33.374526696636615
              ],
              [
                -111.81194648933558,
                33.37451926895466
              ],
              [
                -111.81195036118521,
                33.374512406650915
              ],
              [
                -111.81195535955997,
                33.3745063157822
              ],
              [
                -111.81196133437193,
                33.37450117924113
              ],
              [
                -111.81196810621333,
                33.37449715126443
              ],
              [
                -111.8119754717437,
                33.374494352801555
              ],
              [
                -111.8119832097957,
                33.37449286788294
              ],
              [
                -111.81199108801614,
                33.37449274109675
              ],
              [
                -111.81261231525595,
                33.374486396102284
              ],
              [
                -111.81323126526647,
                33.374480072862454
              ],
              [
                -111.81323916509882,
                33.37448005263734
              ],
              [
                -111.8132469516001,
                33.374481386113224
              ],
              [
                -111.81325439452937,
                33.37448403386024
              ],
              [
                -111.81326127380481,
                33.374487917586514
              ],
              [
                -111.81326738601145,
                33.37449292245318
              ],
              [
                -111.81327255041593,
                33.374498900470115
              ],
              [
                -111.81327661431075,
                33.37450567487188
              ],
              [
                -111.81327945752959,
                33.374513045344514
              ],
              [
                -111.8132809960006,
                33.374520793948726
              ],
              [
                -111.81328258961192,
                33.374630566445674
              ],
              [
                -111.81328161061737,
                33.37464230370277
              ],
              [
                -111.81327884567445,
                33.374653752577174
              ],
              [
                -111.81327436001477,
                33.37466464296247
              ],
              [
                -111.81326825946584,
                33.374674717928336
              ],
              [
                -111.81326068795423,
                33.37468373978216
              ],
              [
                -111.81325182411005,
                33.37469149567675
              ],
              [
                -111.81323361611308,
                33.37470675972216
              ],
              [
                -111.81321821677366,
                33.3747248534388
              ],
              [
                -111.81320605970038,
                33.37474526735085
              ],
              [
                -111.81319748720736,
                33.374767426651374
              ],
              [
                -111.81319274067552,
                33.37479070738744
              ],
              [
                -111.81319195375582,
                33.37481445402917
              ],
              [
                -111.81319514860606,
                33.37483799792792
              ],
              [
                -111.81320223526687,
                33.374860676143776
              ],
              [
                -111.81321301419486,
                33.37488185011241
              ],
              [
                -111.81323395187343,
                33.37490762074699
              ],
              [
                -111.8132589173541,
                33.37492951222398
              ],
              [
                -111.81328720252952,
                33.37494690362537
              ],
              [
                -111.81331800513425,
                33.37495930167086
              ],
              [
                -111.8133504514999,
                33.37496635470901
              ],
              [
                -111.81338362133529,
                33.37496786269124
              ],
              [
                -111.81338605666802,
                33.37528044253564
              ],
              [
                -111.812909506698,
                33.37528545592079
              ],
              [
                -111.81185336640162,
                33.37529657418709
              ],
              [
                -111.81185013785648,
                33.374984805337085
              ],
              [
                -111.81188373466225,
                33.37498274050718
              ],
              [
                -111.81191649161013,
                33.37497499510567
              ],
              [
                -111.81194745536611,
                33.37496179454901
              ],
              [
                -111.81197572478384,
                33.374943523016476
              ],
              [
                -111.81200047713102,
                33.37492071226927
              ],
              [
                -111.81202099203364,
                33.374894026174566
              ]
            ]
          ]
        ]
      },
      "properties": {
        "project_code": "AZ-GILBERT-001",
        "jurisdiction": "Gilbert",
        "site_kind": "enterprise_data_center",
        "site_kind_assertion": "reported",
        "stage": 7,
        "stage_label": "Operational",
        "confidence": 35.32,
        "total_acres": 2.8053,
        "evidence_count": 2
      }
    },
    {
      "type": "Feature",
      "geometry": {
        "type": "MultiPolygon",
        "coordinates": [
          [
            [
              [
                -111.91311590290509,
                33.303707348179245
              ],
              [
                -111.91355598576615,
                33.30371074849174
              ],
              [
                -111.91356187300944,
                33.30373735372534
              ],
              [
                -111.9135720449953,
                33.30376263274414
              ],
              [
                -111.91358622611546,
                33.30378590061726
              ],
              [
                -111.91360403213476,
                33.303806526905454
              ],
              [
                -111.91362498060202,
                33.303823952742825
              ],
              [
                -111.91364850392192,
                33.30383770597913
              ],
              [
                -111.91367396473396,
                33.30384741397268
              ],
              [
                -111.91370067318157,
                33.30385281368698
              ],
              [
                -111.91372790560372,
                33.303853758817645
              ],
              [
                -111.91375492414237,
                33.30385022375651
              ],
              [
                -111.91378099673463,
                33.30384230428549
              ],
              [
                -111.91380541694785,
                33.303830214981346
              ],
              [
                -111.91382752312033,
                33.30381428340182
              ],
              [
                -111.91385201868792,
                33.30379951607893
              ],
              [
                -111.91387851839931,
                33.30378875169543
              ],
              [
                -111.91390637312487,
                33.303782253932695
              ],
              [
                -111.91393490054287,
                33.30378018195815
              ],
              [
                -111.91410105383615,
                33.30377973148656
              ],
              [
                -111.9140967374312,
                33.30444413626694
              ],
              [
                -111.91317844810673,
                33.30444798026186
              ],
              [
                -111.91311322682384,
                33.30438689450798
              ],
              [
                -111.91311590290509,
                33.303707348179245
              ]
            ]
          ]
        ]
      },
      "properties": {
        "project_code": "AZ-CHANDLER-007",
        "jurisdiction": "Chandler",
        "site_kind": "enterprise_data_center",
        "site_kind_assertion": "reported",
        "stage": 7,
        "stage_label": "Operational",
        "confidence": 35.91,
        "total_acres": 1.72,
        "evidence_count": 3
      }
    },
    {
      "type": "Feature",
      "geometry": {
        "type": "MultiPolygon",
        "coordinates": [
          [
            [
              [
                -111.88773732382724,
                33.27113388619722
              ],
              [
                -111.88771042916598,
                33.27113201829379
              ],
              [
                -111.88766427731993,
                33.27112812926915
              ],
              [
                -111.88762574678076,
                33.2711242552657
              ],
              [
                -111.88761636297932,
                33.27112321278475
              ],
              [
                -111.88760698456774,
                33.27112213575462
              ],
              [
                -111.88757887897745,
                33.27111871764859
              ],
              [
                -111.88756952482039,
                33.271117504675324
              ],
              [
                -111.88756315666333,
                33.271116672493044
              ],
              [
                -111.88756017605323,
                33.27111626090832
              ],
              [
                -111.88755083447258,
                33.27111498033896
              ],
              [
                -111.88750684756639,
                33.27110847910216
              ],
              [
                -111.88740453079681,
                33.27109025318963
              ],
              [
                -111.88730306204923,
                33.27106778101827
              ],
              [
                -111.88726549001248,
                33.27105831531431
              ],
              [
                -111.88725645565567,
                33.27105594569615
              ],
              [
                -111.88724838788612,
                33.271053810411004
              ],
              [
                -111.88724743297696,
                33.271053542279866
              ],
              [
                -111.88721146982286,
                33.27104359363791
              ],
              [
                -111.88718519410081,
                33.271035957532426
              ],
              [
                -111.88713157635644,
                33.271019344663245
              ],
              [
                -111.88709612614038,
                33.27100762049266
              ],
              [
                -111.8869974057453,
                33.27097163203346
              ],
              [
                -111.88690038234166,
                33.270931291672206
              ],
              [
                -111.88668121227695,
                33.270834288097824
              ],
              [
                -111.886680414573,
                33.27083393434409
              ],
              [
                -111.88663809044839,
                33.27081520116692
              ],
              [
                -111.88663693162165,
                33.270814688937406
              ],
              [
                -111.88663814883887,
                33.270812749675564
              ],
              [
                -111.88665028956993,
                33.270793393105855
              ],
              [
                -111.88665150588884,
                33.270791454594566
              ],
              [
                -111.88665274646225,
                33.270789477778685
              ],
              [
                -111.88666761178357,
                33.270765775512494
              ],
              [
                -111.88666876522038,
                33.270763936141904
              ],
              [
                -111.88695104283211,
                33.27031388777549
              ],
              [
                -111.88698719193746,
                33.27025286825233
              ],
              [
                -111.8870183846701,
                33.27019119875941
              ],
              [
                -111.88704499190443,
                33.27012741656748
              ],
              [
                -111.88706687163663,
                33.27006186208446
              ],
              [
                -111.8870839070938,
                33.269994885177056
              ],
              [
                -111.88709600735702,
                33.26992684330351
              ],
              [
                -111.88710310784677,
                33.26985809960583
              ],
              [
                -111.88710479308624,
                33.269783759387636
              ],
              [
                -111.88708709088526,
                33.268760475002495
              ],
              [
                -111.8870863937926,
                33.2687200326963
              ],
              [
                -111.88708284095564,
                33.268514616736795
              ],
              [
                -111.88707973907297,
                33.26833490188024
              ],
              [
                -111.88712882032515,
                33.2683343791209
              ],
              [
                -111.88716155223915,
                33.26833402460594
              ],
              [
                -111.88720389882165,
                33.268333555174074
              ],
              [
                -111.88720275167303,
                33.268267562041125
              ],
              [
                -111.88716040958211,
                33.26826802020701
              ],
              [
                -111.8871276776681,
                33.26826837397113
              ],
              [
                -111.88707857844962,
                33.26826890499284
              ],
              [
                -111.88706331786959,
                33.26739718003398
              ],
              [
                -111.8870633250561,
                33.26739705910701
              ],
              [
                -111.88706976956995,
                33.26729871164446
              ],
              [
                -111.88707123382386,
                33.267276360410946
              ],
              [
                -111.88707138833408,
                33.267273998201176
              ],
              [
                -111.88707336732266,
                33.26724379270517
              ],
              [
                -111.8870737167673,
                33.267243809229385
              ],
              [
                -111.88707422790871,
                33.26724383326456
              ],
              [
                -111.8870858997192,
                33.26724434401283
              ],
              [
                -111.88708695793461,
                33.267244389078826
              ],
              [
                -111.88709808536602,
                33.26724483748578
              ],
              [
                -111.88710020359346,
                33.26724490658702
              ],
              [
                -111.88711027460612,
                33.26724525134209
              ],
              [
                -111.8871126425652,
                33.267245330207615
              ],
              [
                -111.8871134528456,
                33.267245358749406
              ],
              [
                -111.88712246654114,
                33.26724563515432
              ],
              [
                -111.88720519059905,
                33.26724680687088
              ],
              [
                -111.88720619132225,
                33.26724680536866
              ],
              [
                -111.88723276977657,
                33.26724666040629
              ],
              [
                -111.88842982699495,
                33.267234425731985
              ],
              [
                -111.88865998704883,
                33.26723207178315
              ],
              [
                -111.88869271357295,
                33.267231737543426
              ],
              [
                -111.88869412482626,
                33.26723281762594
              ],
              [
                -111.88870336310065,
                33.26723988698316
              ],
              [
                -111.88876354124153,
                33.26728593618546
              ],
              [
                -111.88876619127161,
                33.26731337161099
              ],
              [
                -111.88879791976746,
                33.26764190879141
              ],
              [
                -111.88879792425904,
                33.267641949350605
              ],
              [
                -111.88882077508914,
                33.26790682878773
              ],
              [
                -111.88883817860203,
                33.26817212182267
              ],
              [
                -111.8888501274495,
                33.268437716441774
              ],
              [
                -111.88885661658642,
                33.26870350050403
              ],
              [
                -111.8888569435732,
                33.26872827212761
              ],
              [
                -111.88885696782772,
                33.26873002366393
              ],
              [
                -111.88888293542762,
                33.27058286572358
              ],
              [
                -111.88888434668092,
                33.27068350025353
              ],
              [
                -111.88888944012861,
                33.27104686829293
              ],
              [
                -111.88888982460753,
                33.27107439191394
              ],
              [
                -111.88885939058403,
                33.27110056886283
              ],
              [
                -111.88882993482586,
                33.27112590385777
              ],
              [
                -111.88882507943177,
                33.2711300805411
              ],
              [
                -111.88880512695097,
                33.27113027807169
              ],
              [
                -111.88879231517839,
                33.271130405002026
              ],
              [
                -111.88839914952798,
                33.27113430604361
              ],
              [
                -111.8879260742415,
                33.27113899720739
              ],
              [
                -111.88789908795204,
                33.27113912188446
              ],
              [
                -111.88781816438893,
                33.27113778626494
              ],
              [
                -111.88773732382724,
                33.27113388619722
              ]
            ]
          ]
        ]
      },
      "properties": {
        "project_code": "AZ-CHANDLER-003",
        "jurisdiction": "Chandler",
        "site_kind": "enterprise_data_center",
        "site_kind_assertion": "reported",
        "stage": 7,
        "stage_label": "Operational",
        "confidence": 35.55,
        "total_acres": 17.9617,
        "evidence_count": 3
      }
    },
    {
      "type": "Feature",
      "geometry": {
        "type": "MultiPolygon",
        "coordinates": [
          [
            [
              [
                -111.95118278292584,
                33.305624032785495
              ],
              [
                -111.95344384159765,
                33.30560491667478
              ],
              [
                -111.95344654373004,
                33.305699868792345
              ],
              [
                -111.95344515257557,
                33.305761810484675
              ],
              [
                -111.95343809039156,
                33.305823363990804
              ],
              [
                -111.95342541662198,
                33.305884011201165
              ],
              [
                -111.95340723794477,
                33.30594324163469
              ],
              [
                -111.95315498023321,
                33.30670094580091
              ],
              [
                -111.95228723012663,
                33.3067089759385
              ],
              [
                -111.95143625156642,
                33.30671740472927
              ],
              [
                -111.95132387861258,
                33.306338702942654
              ],
              [
                -111.95121157842227,
                33.30596317300437
              ],
              [
                -111.95119685141889,
                33.305903497009574
              ],
              [
                -111.95118667963796,
                33.3058428781688
              ],
              [
                -111.95118112133807,
                33.30578166367471
              ],
              [
                -111.95118020835423,
                33.30572020413155
              ],
              [
                -111.95118278292584,
                33.305624032785495
              ]
            ]
          ]
        ]
      },
      "properties": {
        "project_code": "AZ-CHANDLER-005",
        "jurisdiction": "Chandler",
        "site_kind": "enterprise_data_center",
        "site_kind_assertion": "reported",
        "stage": 7,
        "stage_label": "Operational",
        "confidence": 36.11,
        "total_acres": 5.72,
        "evidence_count": 3
      }
    },
    {
      "type": "Feature",
      "geometry": {
        "type": "MultiPolygon",
        "coordinates": [
          [
            [
              [
                -111.97604759572974,
                33.40569473253029
              ],
              [
                -111.97714215786917,
                33.405688844256865
              ],
              [
                -111.97713308308813,
                33.40717021538582
              ],
              [
                -111.97637700255454,
                33.40717428356448
              ],
              [
                -111.97637756130665,
                33.407247140300555
              ],
              [
                -111.97603808885907,
                33.40724611669518
              ],
              [
                -111.97603434198604,
                33.40724610469683
              ],
              [
                -111.97604360361663,
                33.40569475427759
              ],
              [
                -111.97604759572974,
                33.40569473253029
              ]
            ]
          ]
        ]
      },
      "properties": {
        "project_code": "AZ-TEMPE-001",
        "jurisdiction": "Tempe",
        "site_kind": "enterprise_data_center",
        "site_kind_assertion": "reported",
        "stage": 7,
        "stage_label": "Operational",
        "confidence": 34.39,
        "total_acres": 4.2,
        "evidence_count": 3
      }
    },
    {
      "type": "Feature",
      "geometry": {
        "type": "MultiPolygon",
        "coordinates": [
          [
            [
              [
                -111.60129264309101,
                33.34967860471465
              ],
              [
                -111.60122847373532,
                33.34364492792027
              ],
              [
                -111.60133918929746,
                33.34364416772195
              ],
              [
                -111.60158942130806,
                33.34364092580972
              ],
              [
                -111.6018490838325,
                33.34363756082481
              ],
              [
                -111.60185239951423,
                33.34363751804957
              ],
              [
                -111.60185019684515,
                33.34376352403883
              ],
              [
                -111.60185019684515,
                33.343763564562686
              ],
              [
                -111.60185000370737,
                33.34377459605345
              ],
              [
                -111.60198194376471,
                33.34388366890512
              ],
              [
                -111.60220917800574,
                33.34388220404517
              ],
              [
                -111.60220962536674,
                33.34393105996412
              ],
              [
                -111.60233417408593,
                33.34393042809354
              ],
              [
                -111.60233422528992,
                33.343930427343096
              ],
              [
                -111.60402679591397,
                33.34391974707808
              ],
              [
                -111.60618894288645,
                33.34390606805215
              ],
              [
                -111.6062191199918,
                33.34646645114812
              ],
              [
                -111.60729165813538,
                33.34646079899726
              ],
              [
                -111.60729976363419,
                33.346460755473046
              ],
              [
                -111.6073384370055,
                33.349764670724
              ],
              [
                -111.60732213797299,
                33.34976459418422
              ],
              [
                -111.60326645287431,
                33.34974543973011
              ],
              [
                -111.60314509766594,
                33.349744864180984
              ],
              [
                -111.60314509946258,
                33.34974466757876
              ],
              [
                -111.60314528002397,
                33.34971737964039
              ],
              [
                -111.60313041021107,
                33.34971731060449
              ],
              [
                -111.60132819840997,
                33.34970882068843
              ],
              [
                -111.60129264309101,
                33.34967860471465
              ]
            ]
          ]
        ]
      },
      "properties": {
        "project_code": "AZ-MESA-001",
        "jurisdiction": "Mesa",
        "site_kind": "hyperscale_campus",
        "site_kind_assertion": "reported",
        "stage": 7,
        "stage_label": "Operational",
        "confidence": 59.75,
        "total_acres": 83.1715,
        "evidence_count": 10
      }
    },
    {
      "type": "Feature",
      "geometry": {
        "type": "MultiPolygon",
        "coordinates": [
          [
            [
              [
                -111.6356360062591,
                33.35740468585283
              ],
              [
                -111.63470707998339,
                33.35739793068546
              ],
              [
                -111.63472097422587,
                33.356103793612014
              ],
              [
                -111.63556314300808,
                33.356110226235714
              ],
              [
                -111.63561501532587,
                33.35615337650035
              ],
              [
                -111.6356360062591,
                33.35740468585283
              ]
            ]
          ]
        ]
      },
      "properties": {
        "project_code": "AZ-MESA-003",
        "jurisdiction": "Mesa",
        "site_kind": "enterprise_data_center",
        "site_kind_assertion": "reported",
        "stage": 7,
        "stage_label": "Operational",
        "confidence": 33.0,
        "total_acres": 3.0003,
        "evidence_count": 2
      }
    },
    {
      "type": "Feature",
      "geometry": {
        "type": "MultiPolygon",
        "coordinates": [
          [
            [
              [
                -111.88689137223936,
                33.29877323194395
              ],
              [
                -111.88689499334826,
                33.29931603388439
              ],
              [
                -111.8869148730655,
                33.30229521148657
              ],
              [
                -111.88663573326906,
                33.30229646306815
              ],
              [
                -111.88532997361311,
                33.30230230803628
              ],
              [
                -111.88529724439405,
                33.30230245519281
              ],
              [
                -111.88527411636875,
                33.29880565348871
              ],
              [
                -111.88530684648613,
                33.29880555437931
              ],
              [
                -111.88530666412812,
                33.29877806953561
              ],
              [
                -111.88689137223936,
                33.29877323194395
              ]
            ]
          ]
        ]
      },
      "properties": {
        "project_code": "AZ-CHANDLER-004",
        "jurisdiction": "Chandler",
        "site_kind": "enterprise_data_center",
        "site_kind_assertion": "reported",
        "stage": 7,
        "stage_label": "Operational",
        "confidence": 37.95,
        "total_acres": 14.496,
        "evidence_count": 3
      }
    },
    {
      "type": "Feature",
      "geometry": {
        "type": "MultiPolygon",
        "coordinates": [
          [
            [
              [
                -111.73487162098638,
                33.38816859639002
              ],
              [
                -111.73487581611877,
                33.38803122228174
              ],
              [
                -111.73496574915681,
                33.387883619373035
              ],
              [
                -111.7349647888578,
                33.38773246016768
              ],
              [
                -111.73496388335599,
                33.38758984392534
              ],
              [
                -111.73563965809645,
                33.3875868586718
              ],
              [
                -111.735629875443,
                33.38808997820246
              ],
              [
                -111.73552749355174,
                33.388090574499635
              ],
              [
                -111.73552712164923,
                33.38826957748326
              ],
              [
                -111.73550864869372,
                33.388284628892286
              ],
              [
                -111.73486810767533,
                33.3882836928203
              ],
              [
                -111.73486912366991,
                33.3882504135038
              ],
              [
                -111.73487162098638,
                33.38816859639002
              ]
            ]
          ]
        ]
      },
      "properties": {
        "project_code": "AZ-MESA-004",
        "jurisdiction": "Mesa",
        "site_kind": "enterprise_data_center",
        "site_kind_assertion": "reported",
        "stage": 7,
        "stage_label": "Operational",
        "confidence": 36.48,
        "total_acres": 1.2114,
        "evidence_count": 5
      }
    }
  ]
}
